{
  "type": "FeatureCollection",
  "features": [
    {
      "type": "Feature",
      "properties": {
        "norad_id": 30405,
        "name": "FENGYUN 1C DEB",
        "group": "fengyun-1c-debris",
        "lat": -65.12430659693919,
        "lon": 98.33968098506533,
        "alt_km": 828.3537388162777,
        "timestamp": "2025-12-10T20:49:52.829741+00:00",
        "meta_object_name": "FENGYUN 1C DEB",
        "meta_object_id": "1999-025ADU",
        "meta_epoch": "2025-12-10T12:49:27.241248",
        "meta_mean_motion": 14.28886042,
        "meta_eccentricity": 0.00515001,
        "meta_inclination": 98.7936,
        "meta_ra_of_asc_node": 78.5011,
        "meta_arg_of_pericenter": 160.0548,
        "meta_mean_anomaly": 217.7168,
        "meta_ephemeris_type": 0,
        "meta_classification_type": "U",
        "meta_norad_cat_id": 30405,
        "meta_element_set_no": 999,
        "meta_rev_at_epoch": 97364,
        "meta_bstar": 0.0028189235,
        "meta_mean_motion_dot": 7.179e-05,
        "meta_mean_motion_ddot": 0,
        "tle_line1": "1 30405U 99025ADU 25344.53434307  .00007179  00000+0  28189-2 0  9997",
        "tle_line2": "2 30405  98.7936  78.5011 0051500 160.0548 217.7168 14.28886042973647"
      },
      "geometry": {
        "type": "Point",
        "coordinates": [
          98.33968098506533,
          -65.12430659693919
        ]
      }
    },
    {
      "type": "Feature",
      "properties": {
        "norad_id": 30406,
        "name": "FENGYUN 1C DEB",
        "group": "fengyun-1c-debris",
        "lat": 3.8669766877855656,
        "lon": -124.83356825467196,
        "alt_km": 830.9101285226543,
        "timestamp": "2025-12-10T20:49:52.829752+00:00",
        "meta_object_name": "FENGYUN 1C DEB",
        "meta_object_id": "1999-025ADV",
        "meta_epoch": "2025-12-10T15:39:09.044928",
        "meta_mean_motion": 13.59199766,
        "meta_eccentricity": 0.02831155,
        "meta_inclination": 98.6199,
        "meta_ra_of_asc_node": 235.5638,
        "meta_arg_of_pericenter": 5.2227,
        "meta_mean_anomaly": 23.5425,
        "meta_ephemeris_type": 0,
        "meta_classification_type": "U",
        "meta_norad_cat_id": 30406,
        "meta_element_set_no": 999,
        "meta_rev_at_epoch": 93138,
        "meta_bstar": 0.0032765446,
        "meta_mean_motion_dot": 3.104e-05,
        "meta_mean_motion_ddot": 0,
        "tle_line1": "1 30406U 99025ADV 25344.65218802  .00003104  00000+0  32765-2 0  9990",
        "tle_line2": "2 30406  98.6199 235.5638 0283115   5.2227  23.5425 13.59199766931388"
      },
      "geometry": {
        "type": "Point",
        "coordinates": [
          -124.83356825467196,
          3.8669766877855656
        ]
      }
    },
    {
      "type": "Feature",
      "properties": {
        "norad_id": 30409,
        "name": "FENGYUN 1C DEB",
        "group": "fengyun-1c-debris",
        "lat": 12.700767772188279,
        "lon": 154.30448111942144,
        "alt_km": 993.2540351813795,
        "timestamp": "2025-12-10T20:49:52.829761+00:00",
        "meta_object_name": "FENGYUN 1C DEB",
        "meta_object_id": "1999-025ADY",
        "meta_epoch": "2025-12-10T12:03:22.075776",
        "meta_mean_motion": 14.03721211,
        "meta_eccentricity": 0.01679171,
        "meta_inclination": 98.4733,
        "meta_ra_of_asc_node": 332.0382,
        "meta_arg_of_pericenter": 11.8728,
        "meta_mean_anomaly": 107.7275,
        "meta_ephemeris_type": 0,
        "meta_classification_type": "U",
        "meta_norad_cat_id": 30409,
        "meta_element_set_no": 999,
        "meta_rev_at_epoch": 96398,
        "meta_bstar": 0.0014522401,
        "meta_mean_motion_dot": 2.549e-05,
        "meta_mean_motion_ddot": 0,
        "tle_line1": "1 30409U 99025ADY 25344.50233884  .00002549  00000+0  14522-2 0  9997",
        "tle_line2": "2 30409  98.4733 332.0382 0167917  11.8728 107.7275 14.03721211963987"
      },
      "geometry": {
        "type": "Point",
        "coordinates": [
          154.30448111942144,
          12.700767772188279
        ]
      }
    },
    {
      "type": "Feature",
      "properties": {
        "norad_id": 30411,
        "name": "FENGYUN 1C DEB",
        "group": "fengyun-1c-debris",
        "lat": 4.186102252076244,
        "lon": -105.06011925102784,
        "alt_km": 895.601618348197,
        "timestamp": "2025-12-10T20:49:52.829771+00:00",
        "meta_object_name": "FENGYUN 1C DEB",
        "meta_object_id": "1999-025AEA",
        "meta_epoch": "2025-12-10T07:09:48.444768",
        "meta_mean_motion": 14.07626203,
        "meta_eccentricity": 0.012246,
        "meta_inclination": 98.5815,
        "meta_ra_of_asc_node": 255.0319,
        "meta_arg_of_pericenter": 113.513,
        "meta_mean_anomaly": 247.8963,
        "meta_ephemeris_type": 0,
        "meta_classification_type": "U",
        "meta_norad_cat_id": 30411,
        "meta_element_set_no": 999,
        "meta_rev_at_epoch": 95949,
        "meta_bstar": 0.0020689,
        "meta_mean_motion_dot": 3.703e-05,
        "meta_mean_motion_ddot": 0,
        "tle_line1": "1 30411U 99025AEA 25344.29847737  .00003703  00000+0  20689-2 0  9998",
        "tle_line2": "2 30411  98.5815 255.0319 0122460 113.5130 247.8963 14.07626203959497"
      },
      "geometry": {
        "type": "Point",
        "coordinates": [
          -105.06011925102784,
          4.186102252076244
        ]
      }
    },
    {
      "type": "Feature",
      "properties": {
        "norad_id": 30413,
        "name": "FENGYUN 1C DEB",
        "group": "fengyun-1c-debris",
        "lat": -49.532855483826616,
        "lon": 22.520164018998386,
        "alt_km": 757.9147655839906,
        "timestamp": "2025-12-10T20:49:52.829781+00:00",
        "meta_object_name": "FENGYUN 1C DEB",
        "meta_object_id": "1999-025AEC",
        "meta_epoch": "2025-12-10T11:56:20.155200",
        "meta_mean_motion": 14.3249455,
        "meta_eccentricity": 0.00455228,
        "meta_inclination": 102.0618,
        "meta_ra_of_asc_node": 216.5222,
        "meta_arg_of_pericenter": 222.7559,
        "meta_mean_anomaly": 258.3655,
        "meta_ephemeris_type": 0,
        "meta_classification_type": "U",
        "meta_norad_cat_id": 30413,
        "meta_element_set_no": 999,
        "meta_rev_at_epoch": 97107,
        "meta_bstar": 0.0032225696,
        "meta_mean_motion_dot": 8.773e-05,
        "meta_mean_motion_ddot": 0,
        "tle_line1": "1 30413U 99025AEC 25344.49745550  .00008773  00000+0  32226-2 0  9994",
        "tle_line2": "2 30413 102.0618 216.5222 0045522 222.7559 258.3655 14.32494550971076"
      },
      "geometry": {
        "type": "Point",
        "coordinates": [
          22.520164018998386,
          -49.532855483826616
        ]
      }
    },
    {
      "type": "Feature",
      "properties": {
        "norad_id": 30414,
        "name": "FENGYUN 1C DEB",
        "group": "fengyun-1c-debris",
        "lat": -50.04741258959505,
        "lon": 153.03151506369537,
        "alt_km": 802.3315927614103,
        "timestamp": "2025-12-10T20:49:52.829791+00:00",
        "meta_object_name": "FENGYUN 1C DEB",
        "meta_object_id": "1999-025AED",
        "meta_epoch": "2025-12-10T09:20:56.980032",
        "meta_mean_motion": 14.34102365,
        "meta_eccentricity": 0.00584425,
        "meta_inclination": 99.081,
        "meta_ra_of_asc_node": 141.5225,
        "meta_arg_of_pericenter": 195.5619,
        "meta_mean_anomaly": 164.3769,
        "meta_ephemeris_type": 0,
        "meta_classification_type": "U",
        "meta_norad_cat_id": 30414,
        "meta_element_set_no": 999,
        "meta_rev_at_epoch": 97053,
        "meta_bstar": 0.0042582791,
        "meta_mean_motion_dot": 0.00012116,
        "meta_mean_motion_ddot": 0,
        "tle_line1": "1 30414U 99025AED 25344.38954838  .00012116  00000+0  42583-2 0  9997",
        "tle_line2": "2 30414  99.0810 141.5225 0058442 195.5619 164.3769 14.34102365970539"
      },
      "geometry": {
        "type": "Point",
        "coordinates": [
          153.03151506369537,
          -50.04741258959505
        ]
      }
    },
    {
      "type": "Feature",
      "properties": {
        "norad_id": 30415,
        "name": "FENGYUN 1C DEB",
        "group": "fengyun-1c-debris",
        "lat": 67.81839712010763,
        "lon": -110.23474098733958,
        "alt_km": 1165.6313412554173,
        "timestamp": "2025-12-10T20:49:52.829801+00:00",
        "meta_object_name": "FENGYUN 1C DEB",
        "meta_object_id": "1999-025AEE",
        "meta_epoch": "2025-12-10T09:50:09.121056",
        "meta_mean_motion": 13.68925916,
        "meta_eccentricity": 0.02383681,
        "meta_inclination": 99.6458,
        "meta_ra_of_asc_node": 44.6545,
        "meta_arg_of_pericenter": 275.2543,
        "meta_mean_anomaly": 98.9202,
        "meta_ephemeris_type": 0,
        "meta_classification_type": "U",
        "meta_norad_cat_id": 30415,
        "meta_element_set_no": 999,
        "meta_rev_at_epoch": 93846,
        "meta_bstar": 0.0017368588,
        "meta_mean_motion_dot": 1.781e-05,
        "meta_mean_motion_ddot": 0,
        "tle_line1": "1 30415U 99025AEE 25344.40982779  .00001781  00000+0  17369-2 0  9996",
        "tle_line2": "2 30415  99.6458  44.6545 0238368 275.2543  98.9202 13.68925916938462"
      },
      "geometry": {
        "type": "Point",
        "coordinates": [
          -110.23474098733958,
          67.81839712010763
        ]
      }
    }
  ]
}